[{"OBJECT_NAME":"STARLINK-31868","OBJECT_ID":"2024-093B","EPOCH":"2026-03-09T09:00:08.497440","MEAN_MOTION":15.27575082,"ECCENTRICITY":0.00014446,"INCLINATION":43.0032,"RA_OF_ASC_NODE":207.45,"ARG_OF_PERICENTER":253.4787,"MEAN_ANOMALY":106.5907,"EPHEMERIS_TYPE":0,"CLASSIFICATION_TYPE":"U","NORAD_CAT_ID":59783,"ELEMENT_SET_NO":999,"REV_AT_EPOCH":10268,"BSTAR":-7.408383e-6,"MEAN_MOTION_DOT":-4.66e-6,"MEAN_MOTION_DDOT":0},{"OBJECT_NAME":"OBJECT F","OBJECT_ID":"2021-022F","EPOCH":"2026-03-09T23:37:37.165152","MEAN_MOTION":15.31317672,"ECCENTRICITY":0.00120882,"INCLINATION":97.3982,"RA_OF_ASC_NODE":329.8375,"ARG_OF_PERICENTER":85.9268,"MEAN_ANOMALY":274.3355,"EPHEMERIS_TYPE":0,"CLASSIFICATION_TYPE":"U","NORAD_CAT_ID":47937,"ELEMENT_SET_NO":999,"REV_AT_EPOCH":27452,"BSTAR":0.00038690553,"MEAN_MOTION_DOT":0.00011656,"MEAN_MOTION_DDOT":0}]
